COMMENT,ORIGINATOR,NORAD_CAT_ID,OBJECT_NAME,OBJECT_TYPE,CLASSIFICATION_TYPE,INTLDES,EPOCH,EPOCH_MICROSECONDS,MEAN_MOTION,ECCENTRICITY,INCLINATION,RA_OF_ASC_NODE,ARG_OF_PERICENTER,MEAN_ANOMALY,EPHEMERIS_TYPE,ELEMENT_SET_NO,REV_AT_EPOCH,BSTAR,MEAN_MOTION_DOT,MEAN_MOTION_DDOT,FILE,TLE_LINE0,TLE_LINE1,TLE_LINE2,OBJECT_ID,OBJECT_NUMBER,SEMIMAJOR_AXIS,PERIOD,APOGEE,PERIGEE
"GENERATED VIA SPACETRACK.ORG API","JSPOC","21903","SL-8 R/B","ROCKET BODY","U","92012B","2016-01-10 12:43:52","209696","13.74434422","0.004383","82.9354","211.5728","110.7875","305.9519","0","999","19563","-5.4998e-05","-3.7e-07","0","1978499","0 SL-8 R/B","1 21903U 92012B   16010.53046539 -.00000037  00000-0 -54998-4 0  9993","2 21903  82.9354 211.5728 0043830 110.7875 305.9519 13.74434422195631","1992-012B","21903","7361.830","104.770","1015.962","951.428"
"GENERATED VIA SPACETRACK.ORG API","JSPOC","31117","EGYPTSAT 1","PAYLOAD","U","07012A","2016-01-10 12:44:24","530208","14.72470379","0.0006651","97.7212","43.1902","127.1913","232.9916","0","999","46888","6.9469e-05","3.94e-06","0","1978580","0 EGYPTSAT 1","1 31117U 07012A   16010.53083947  .00000394  00000-0  69469-4 0  9994","2 31117  97.7212  43.1902 0006651 127.1913 232.9916 14.72470379468884","2007-012A","31117","7031.329","97.794","657.871","648.518"
"GENERATED VIA SPACETRACK.ORG API","JSPOC","7270","COSMOS 646","PAYLOAD","U","74024F","2016-01-10 12:44:57","742368","12.5497116","0.0050962","74.0171","145.8885","71.0025","358.5617","0","999","91134","-7.9062e-05","-2.9e-07","0","1978546","0 COSMOS 646","1 07270U 74024F   16010.53122387 -.00000029  00000-0 -79062-4 0  9993","2 07270  74.0171 145.8885 0050962  71.0025 358.5617 12.54971160911343","1974-024F","7270","7821.907","114.743","1483.634","1403.910"
"GENERATED VIA SPACETRACK.ORG API","JSPOC","23455","NOAA 14","PAYLOAD","U","94089A","2016-01-10 12:44:57","280992","14.14065094","0.0009055","98.7368","92.5679","203.6586","281.7694","0","999","8483","2.7633e-05","9e-08","0","1978610","0 NOAA 14","1 23455U 94089A   16010.53121853  .00000009  00000-0  27633-4 0  9999","2 23455  98.7368  92.5679 0009055 203.6586 281.7694 14.14065094 84833","1994-089A","23455","7223.631","101.834","852.037","838.955"
"GENERATED VIA SPACETRACK.ORG API","JSPOC","26957","TES","PAYLOAD","U","01049A","2016-01-10 12:45:04","435776","15.09015324","0.00413","97.6753","103.9197","15.7863","344.4689","0","999","77940","9.8626e-05","1.522e-05","0","1978603","0 TES","1 26957U 01049A   16010.53130134  .00001522  00000-0  98626-4 0  9996","2 26957  97.6753 103.9197 0041300  15.7863 344.4689 15.09015324779401","2001-049A","26957","6917.344","95.426","567.778","510.640"
"GENERATED VIA SPACETRACK.ORG API","JSPOC","40360","RESURS P2","PAYLOAD","U","14087A","2016-01-10 12:45:06","264864","15.3247525","0.0011884","97.2867","106.9369","74.8652","52.106","0","999","5820","6.2109e-05","1.874e-05","0","1978495","0 RESURS P2","1 40360U 14087A   16010.53132251  .00001874  00000-0  62109-4 0  9995","2 40360  97.2867 106.9369 0011884  74.8652  52.1060 15.32475250 58205","2014-087A","40360","6846.566","93.965","476.568","460.295"
"GENERATED VIA SPACETRACK.ORG API","JSPOC","25994","TERRA","PAYLOAD","U","99068A","2016-01-10 12:45:07","25184","14.57107614","8.98e-05","98.2061","87.0968","91.9092","268.2218","0","999","85441","7.1596e-05","2.77e-06","0","1978538","0 TERRA","1 25994U 99068A   16010.53133131  .00000277  00000-0  71596-4 0  9997","2 25994  98.2061  87.0968 0000898  91.9092 268.2218 14.57107614854417","1999-068A","25994","7080.665","98.825","703.166","701.894"
"GENERATED VIA SPACETRACK.ORG API","JSPOC","23731","INSAT 2C","PAYLOAD","U","95067B","2016-01-10 12:45:07","752672","0.9977601","0.0005629","11.4053","39.5214","231.7001","291.007","0","999","7337","0","-7.2e-07","0","1978612","0 INSAT 2C","1 23731U 95067B   16010.53133973 -.00000072  00000-0  00000+0 0  9994","2 23731  11.4053  39.5214 0005629 231.7001 291.0070  0.99776010 73370","1995-067B","23731","42304.290","1443.232","35949.968","35902.342"
"GENERATED VIA SPACETRACK.ORG API","JSPOC","23731","INSAT 2C","PAYLOAD","U","95067B","2016-01-10 12:45:07","752672","0.9977601","0.0005629","11.4053","39.5214","231.7001","291.007","0","999","7337","0","-7.2e-07","0","1979020","0 INSAT 2C","1 23731U 95067B   16010.53133973 -.00000072  00000-0  00000+0 0  9994","2 23731  11.4053  39.5214 0005629 231.7001 291.0070  0.99776010 73370","1995-067B","23731","42304.290","1443.232","35949.968","35902.342"
"GENERATED VIA SPACETRACK.ORG API","JSPOC","21989","NSS K (INTELSAT K)","PAYLOAD","U","92032A","2016-01-10 12:45:07","752672","0.97180185","0.0087057","11.4291","41.8996","261.8609","259.2906","0","999","9545","0","-6e-07","0","1979034","0 NSS K (INTELSAT K)","1 21989U 92032A   16010.53133973 -.00000060 +00000-0 +00000-0 0  9994","2 21989 011.4291 041.8996 0087057 261.8609 259.2906 00.97180185095450","1992-032A","21989","43054.315","1481.783","37050.998","36301.363"
"GENERATED VIA SPACETRACK.ORG API","JSPOC","35867","FREGAT/IRIS","PAYLOAD","U","09049C","2016-01-10 12:45:09","544608","15.50561214","0.0005565","97.0922","36.3227","353.7597","164.5838","0","999","35285","0.00018205","0.00010321","0","1978552","0 FREGAT/IRIS","1 35867U 09049C   16010.53136047  .00010321  00000-0  18205-3 0  9994","2 35867  97.0922  36.3227 0005565 353.7597 164.5838 15.50561214352851","2009-049C","35867","6793.223","92.869","418.868","411.307"
"GENERATED VIA SPACETRACK.ORG API","JSPOC","28890","BEIJING 1 (TSINGHUA)","PAYLOAD","U","05043A","2016-01-10 12:45:25","376544","14.61076305","0.0015475","97.8198","187.4919","7.6708","352.4732","0","999","54395","3.5728e-05","1.32e-06","0","1978563","0 BEIJING 1 (TSINGHUA)","1 28890U 05043A   16010.53154371  .00000132  00000-0  35728-4 0  9991","2 28890  97.8198 187.4919 0015475   7.6708 352.4732 14.61076305543955","2005-043A","28890","7067.837","98.557","700.640","678.765"
"GENERATED VIA SPACETRACK.ORG API","JSPOC","40137","CHUANG XIN 1-04","PAYLOAD","U","14051B","2016-01-10 12:45:26","374464","14.2951264","0.0021928","98.4509","19.8437","213.9005","146.0779","0","999","7051","2.8143e-05","3e-07","0","1978603","0 CHUANG XIN 1-04","1 40137U 14051B   16010.53155526  .00000030  00000-0  28143-4 0  9991","2 40137  98.4509  19.8437 0021928 213.9005 146.0779 14.29512640 70517","2014-051B","40137","7171.497","100.733","809.087","777.636"
"GENERATED VIA SPACETRACK.ORG API","JSPOC","27430","HAIYANG 1","PAYLOAD","U","02024A","2016-01-10 12:45:33","564672","14.30749044","0.0008992","98.2448","10.342","169.7364","301.5728","0","999","71286","5.2252e-05","9.6e-07","0","1978602","0 HAIYANG 1","1 27430U 02024A   16010.53163848  .00000096  00000-0  52252-4 0  9995","2 27430  98.2448  10.3420 0008992 169.7364 301.5728 14.30749044712863","2002-024A","27430","7167.365","100.646","795.675","782.785"
"GENERATED VIA SPACETRACK.ORG API","JSPOC","23604","SL-8 R/B","ROCKET BODY","U","95032B","2016-01-10 12:45:48","957696","13.74252037","0.0023277","82.9027","186.0893","255.8421","163.7706","0","999","2910","-6.4672e-05","-4.6e-07","0","1978487","0 SL-8 R/B","1 23604U 95032B   16010.53181664 -.00000046  00000-0 -64672-4 0  9997","2 23604  82.9027 186.0893 0023277 255.8421 163.7706 13.74252037 29104","1995-032B","23604","7362.482","104.784","1001.484","967.209"
"GENERATED VIA SPACETRACK.ORG API","JSPOC","22316","IUS R/B(2)","ROCKET BODY","U","93003D","2016-01-10 12:45:53","550720","1.0009778","0.0064742","13.2111","13.7033","27.2556","163.989","0","999","8902","0","-1.38e-06","0","1978637","0 IUS R/B(2)","1 22316U 93003D   16010.53186980 -.00000138  00000-0  00000+0 0  9999","2 22316  13.2111  13.7033 0064742  27.2556 163.9890  1.00097780 89029","1993-003D","22316","42213.582","1438.593","36108.746","35562.148"
"GENERATED VIA SPACETRACK.ORG API","JSPOC","38998","FENGNIAO 1 (FN-1)","PAYLOAD","U","12064B","2016-01-10 12:45:58","528224","15.36946086","0.0007983","97.3432","23.2296","137.5192","25.6066","0","999","17542","0.00011459","4.061e-05","0","1978488","0 FENGNIAO 1 (FN-1)","1 38998U 12064B   16010.53192741  .00004061  00000-0  11459-3 0  9994","2 38998  97.3432  23.2296 0007983 137.5192  25.6066 15.36946086175428","2012-064B","38998","6833.283","93.692","460.603","449.693"
"GENERATED VIA SPACETRACK.ORG API","JSPOC","14521","COSMOS 1510","PAYLOAD","U","83115A","2016-01-10 12:46:05","506752","12.41150105","0.0027151","73.6166","16.9731","28.8595","117.6817","0","999","45647","-6.5534e-05","-2.6e-07","0","1978593","0 COSMOS 1510","1 14521U 83115A   16010.53200818 -.00000026  00000-0 -65534-4 0  9993","2 14521  73.6166  16.9731 0027151  28.8595 117.6817 12.41150105456471","1983-115A","14521","7879.868","116.021","1523.128","1480.338"
"GENERATED VIA SPACETRACK.ORG API","JSPOC","29092","YAOGAN 1","PAYLOAD","U","06015A","2016-01-10 12:46:06","971232","14.82567439","0.000145","98.0025","15.3575","89.0457","22.233","0","999","52477","3.4506e-05","2.24e-06","0","1978565","0 YAOGAN 1","1 29092U 06015A   16010.53202513  .00000224  00000-0  34506-4 0  9993","2 29092  98.0025  15.3575 0001450  89.0457  22.2330 14.82567439524773","2006-015A","29092","6999.368","97.128","622.248","620.218"
"GENERATED VIA SPACETRACK.ORG API","JSPOC","20508","NADEZHDA 2","PAYLOAD","U","90017A","2016-01-10 12:46:11","535744","13.74218695","0.0042822","82.9551","8.4512","261.1141","214.2313","0","999","29717","3.0036e-05","4.3e-07","0","1978497","0 NADEZHDA 2","1 20508U 90017A   16010.53207796  .00000043  00000-0  30036-4 0  9992","2 20508  82.9551   8.4512 0042822 261.1141 214.2313 13.74218695297179","1990-017A","20508","7362.601","104.786","1015.994","952.937"
